{
  "norad_id": 63258,
  "name": "ICEYE-X46",
  "history": [
    {
      "epoch": "2026-04-30T15:23:50.587872Z",
      "apogee_km": 581.8321488726351,
      "perigee_km": 579.7286073275818,
      "latitude_deg": 3.3020939682490017e-06,
      "longitude_deg": -76.10866734456297,
      "height_km": 583.8725277902537,
      "semi_major_axis_km": 6958.917378100108,
      "eccentricity": 0.00015114,
      "inclination_deg": 97.6943,
      "raan_deg": 13.4375,
      "arg_perigee_deg": 92.4978,
      "mean_anomaly_deg": 267.6416,
      "mean_motion_rev_day": 14.95513169
    },
    {
      "epoch": "2026-05-02T10:45:13.499424Z",
      "apogee_km": 581.9140003233479,
      "perigee_km": 579.57164137565,
      "latitude_deg": -6.442413977134571e-05,
      "longitude_deg": -6.461008168256173,
      "height_km": 583.8361243872001,
      "semi_major_axis_km": 6958.879820849499,
      "eccentricity": 0.0001683,
      "inclination_deg": 97.6941,
      "raan_deg": 15.2112,
      "arg_perigee_deg": 92.3122,
      "mean_anomaly_deg": 267.8291,
      "mean_motion_rev_day": 14.95525276
    },
    {
      "epoch": "2026-05-03T15:39:28.008000Z",
      "apogee_km": 581.9322517850096,
      "perigee_km": 579.5008283581083,
      "latitude_deg": 9.06290963912299e-05,
      "longitude_deg": -80.0262309328795,
      "height_km": 583.7882423498678,
      "semi_major_axis_km": 6958.853540071558,
      "eccentricity": 0.0001747,
      "inclination_deg": 97.6939,
      "raan_deg": 16.3935,
      "arg_perigee_deg": 91.2147,
      "mean_anomaly_deg": 268.9275,
      "mean_motion_rev_day": 14.95533748
    },
    {
      "epoch": "2026-05-04T15:44:39.638976Z",
      "apogee_km": 581.9176520110123,
      "perigee_km": 579.475101495771,
      "latitude_deg": -4.7536772800163965e-06,
      "longitude_deg": -81.32868394700776,
      "height_km": 583.7506929440758,
      "semi_major_axis_km": 6958.833376753391,
      "eccentricity": 0.0001755,
      "inclination_deg": 97.6937,
      "raan_deg": 17.3787,
      "arg_perigee_deg": 90.3929,
      "mean_anomaly_deg": 269.7493,
      "mean_motion_rev_day": 14.95540248
    },
    {
      "epoch": "2026-05-05T11:00:48.547008Z",
      "apogee_km": 581.8755934999008,
      "perigee_km": 579.4713244863187,
      "latitude_deg": 1.1165683811192868e-05,
      "longitude_deg": -10.369061390980008,
      "height_km": 583.7064416948546,
      "semi_major_axis_km": 6958.81045899311,
      "eccentricity": 0.00017275,
      "inclination_deg": 97.6936,
      "raan_deg": 18.1668,
      "arg_perigee_deg": 89.3798,
      "mean_anomaly_deg": 270.7621,
      "mean_motion_rev_day": 14.95547636
    }
  ]
}